[{"OBJECT_NAME":"STARLINK-32583","OBJECT_ID":"2024-209S","EPOCH":"2025-08-31T13:12:16.699392","MEAN_MOTION":15.3020075,"ECCENTRICITY":0.00013209,"INCLINATION":53.1591,"RA_OF_ASC_NODE":305.7263,"ARG_OF_PERICENTER":87.1456,"MEAN_ANOMALY":272.9696,"EPHEMERIS_TYPE":0,"CLASSIFICATION_TYPE":"U","NORAD_CAT_ID":61955,"ELEMENT_SET_NO":999,"REV_AT_EPOCH":4580,"BSTAR":0.0007259338,"MEAN_MOTION_DOT":0.00021203,"MEAN_MOTION_DDOT":0},{"OBJECT_NAME":"STARLINK-32273","OBJECT_ID":"2024-209T","EPOCH":"2025-08-31T11:00:14.031072","MEAN_MOTION":15.30193607,"ECCENTRICITY":0.00013576,"INCLINATION":53.1583,"RA_OF_ASC_NODE":305.8655,"ARG_OF_PERICENTER":94.7339,"MEAN_ANOMALY":265.3817,"EPHEMERIS_TYPE":0,"CLASSIFICATION_TYPE":"U","NORAD_CAT_ID":61956,"ELEMENT_SET_NO":999,"REV_AT_EPOCH":4577,"BSTAR":0.0010227971,"MEAN_MOTION_DOT":0.0003005,"MEAN_MOTION_DDOT":0},{"OBJECT_NAME":"STARLINK-32359","OBJECT_ID":"2024-209U","EPOCH":"2025-08-31T11:29:06.524736","MEAN_MOTION":15.30192547,"ECCENTRICITY":0.00011356,"INCLINATION":53.1577,"RA_OF_ASC_NODE":305.9919,"ARG_OF_PERICENTER":94.7017,"MEAN_ANOMALY":265.4113,"EPHEMERIS_TYPE":0,"CLASSIFICATION_TYPE":"U","NORAD_CAT_ID":61957,"ELEMENT_SET_NO":999,"REV_AT_EPOCH":4579,"BSTAR":0.0002734261,"MEAN_MOTION_DOT":7.746e-5,"MEAN_MOTION_DDOT":0},{"OBJECT_NAME":"STARLINK-32566","OBJECT_ID":"2024-209V","EPOCH":"2025-08-31T10:55:40.864512","MEAN_MOTION":15.30200557,"ECCENTRICITY":0.00017813,"INCLINATION":53.1589,"RA_OF_ASC_NODE":305.8484,"ARG_OF_PERICENTER":45.8767,"MEAN_ANOMALY":314.238,"EPHEMERIS_TYPE":0,"CLASSIFICATION_TYPE":"U","NORAD_CAT_ID":61958,"ELEMENT_SET_NO":999,"REV_AT_EPOCH":4579,"BSTAR":0.0011149796,"MEAN_MOTION_DOT":0.0003281,"MEAN_MOTION_DDOT":0},{"OBJECT_NAME":"STARLINK-32499","OBJECT_ID":"2024-210A","EPOCH":"2025-08-31T01:57:46.258560","MEAN_MOTION":15.27626596,"ECCENTRICITY":0.00028567,"INCLINATION":43.0011,"RA_OF_ASC_NODE":175.8773,"ARG_OF_PERICENTER":273.9851,"MEAN_ANOMALY":86.0674,"EPHEMERIS_TYPE":0,"CLASSIFICATION_TYPE":"U","NORAD_CAT_ID":61959,"ELEMENT_SET_NO":999,"REV_AT_EPOCH":4577,"BSTAR":0.0016437637,"MEAN_MOTION_DOT":0.00045317,"MEAN_MOTION_DDOT":0},{"OBJECT_NAME":"STARLINK-32372","OBJECT_ID":"2024-210B","EPOCH":"2025-08-31T05:17:11.060160","MEAN_MOTION":15.27629949,"ECCENTRICITY":0.00017509,"INCLINATION":43.0001,"RA_OF_ASC_NODE":175.1952,"ARG_OF_PERICENTER":268.9171,"MEAN_ANOMALY":91.1481,"EPHEMERIS_TYPE":0,"CLASSIFICATION_TYPE":"U","NORAD_CAT_ID":61960,"ELEMENT_SET_NO":999,"REV_AT_EPOCH":4565,"BSTAR":0.001486003,"MEAN_MOTION_DOT":0.0004092,"MEAN_MOTION_DDOT":0},{"OBJECT_NAME":"STARLINK-32452","OBJECT_ID":"2024-210C","EPOCH":"2025-08-31T11:48:10.492704","MEAN_MOTION":15.27592365,"ECCENTRICITY":0.0001469,"INCLINATION":43,"RA_OF_ASC_NODE":166.8715,"ARG_OF_PERICENTER":23.266,"MEAN_ANOMALY":336.8258,"EPHEMERIS_TYPE":0,"CLASSIFICATION_TYPE":"U","NORAD_CAT_ID":61961,"ELEMENT_SET_NO":999,"REV_AT_EPOCH":4590,"BSTAR":0.0017963222,"MEAN_MOTION_DOT":0.0004952,"MEAN_MOTION_DDOT":0},{"OBJECT_NAME":"STARLINK-32458","OBJECT_ID":"2024-210D","EPOCH":"2025-08-31T11:12:32.535936","MEAN_MOTION":15.27616503,"ECCENTRICITY":0.00029344,"INCLINATION":42.9997,"RA_OF_ASC_NODE":159.7564,"ARG_OF_PERICENTER":279.5525,"MEAN_ANOMALY":80.4995,"EPHEMERIS_TYPE":0,"CLASSIFICATION_TYPE":"U","NORAD_CAT_ID":61962,"ELEMENT_SET_NO":999,"REV_AT_EPOCH":4598,"BSTAR":0.0016124376,"MEAN_MOTION_DOT":0.00044429,"MEAN_MOTION_DDOT":0},{"OBJECT_NAME":"STARLINK-32487","OBJECT_ID":"2024-210E","EPOCH":"2025-08-31T12:16:22.313568","MEAN_MOTION":15.27605607,"ECCENTRICITY":0.00012776,"INCLINATION":43.0012,"RA_OF_ASC_NODE":173.9334,"ARG_OF_PERICENTER":290.0252,"MEAN_ANOMALY":70.0462,"EPHEMERIS_TYPE":0,"CLASSIFICATION_TYPE":"U","NORAD_CAT_ID":61963,"ELEMENT_SET_NO":999,"REV_AT_EPOCH":4582,"BSTAR":0.0013458039,"MEAN_MOTION_DOT":0.00036986,"MEAN_MOTION_DDOT":0},{"OBJECT_NAME":"STARLINK-32513","OBJECT_ID":"2024-210F","EPOCH":"2025-08-31T10:55:53.576544","MEAN_MOTION":15.27625164,"ECCENTRICITY":0.00021464,"INCLINATION":42.998,"RA_OF_ASC_NODE":159.6692,"ARG_OF_PERICENTER":277.3624,"MEAN_ANOMALY":82.6983,"EPHEMERIS_TYPE":0,"CLASSIFICATION_TYPE":"U","NORAD_CAT_ID":61964,"ELEMENT_SET_NO":999,"REV_AT_EPOCH":4598,"BSTAR":0.001544098,"MEAN_MOTION_DOT":0.00042533,"MEAN_MOTION_DDOT":0},{"OBJECT_NAME":"STARLINK-32514","OBJECT_ID":"2024-210G","EPOCH":"2025-08-31T11:53:44.814912","MEAN_MOTION":15.27579986,"ECCENTRICITY":0.00015201,"INCLINATION":43.0017,"RA_OF_ASC_NODE":166.8988,"ARG_OF_PERICENTER":266.8033,"MEAN_ANOMALY":93.2645,"EPHEMERIS_TYPE":0,"CLASSIFICATION_TYPE":"U","NORAD_CAT_ID":61965,"ELEMENT_SET_NO":999,"REV_AT_EPOCH":4590,"BSTAR":0.0012903843,"MEAN_MOTION_DOT":0.00035417,"MEAN_MOTION_DDOT":0},{"OBJECT_NAME":"STARLINK-32498","OBJECT_ID":"2024-210H","EPOCH":"2025-08-30T23:36:27.009216","MEAN_MOTION":15.27586972,"ECCENTRICITY":0.00013934,"INCLINATION":42.9943,"RA_OF_ASC_NODE":162.151,"ARG_OF_PERICENTER":285.4701,"MEAN_ANOMALY":74.5997,"EPHEMERIS_TYPE":0,"CLASSIFICATION_TYPE":"U","NORAD_CAT_ID":61966,"ELEMENT_SET_NO":999,"REV_AT_EPOCH":4591,"BSTAR":0.0010043096,"MEAN_MOTION_DOT":0.00027483,"MEAN_MOTION_DDOT":0},{"OBJECT_NAME":"STARLINK-32518","OBJECT_ID":"2024-210J","EPOCH":"2025-08-30T01:59:12.928992","MEAN_MOTION":15.27565226,"ECCENTRICITY":0.00017307,"INCLINATION":42.9992,"RA_OF_ASC_NODE":175.0229,"ARG_OF_PERICENTER":282.2447,"MEAN_ANOMALY":77.821,"EPHEMERIS_TYPE":0,"CLASSIFICATION_TYPE":"U","NORAD_CAT_ID":61967,"ELEMENT_SET_NO":999,"REV_AT_EPOCH":4555,"BSTAR":-0.00041420115,"MEAN_MOTION_DOT":-0.00011637,"MEAN_MOTION_DDOT":0},{"OBJECT_NAME":"STARLINK-32471","OBJECT_ID":"2024-210K","EPOCH":"2025-08-31T11:38:54.859488","MEAN_MOTION":15.27580329,"ECCENTRICITY":5.88e-5,"INCLINATION":42.9976,"RA_OF_ASC_NODE":166.8238,"ARG_OF_PERICENTER":239.879,"MEAN_ANOMALY":120.2003,"EPHEMERIS_TYPE":0,"CLASSIFICATION_TYPE":"U","NORAD_CAT_ID":61968,"ELEMENT_SET_NO":999,"REV_AT_EPOCH":4591,"BSTAR":0.00097285855,"MEAN_MOTION_DOT":0.00026606,"MEAN_MOTION_DDOT":0},{"OBJECT_NAME":"STARLINK-32450","OBJECT_ID":"2024-210L","EPOCH":"2025-08-31T11:44:27.971232","MEAN_MOTION":15.27591109,"ECCENTRICITY":0.00010451,"INCLINATION":42.9994,"RA_OF_ASC_NODE":166.852,"ARG_OF_PERICENTER":344.1162,"MEAN_ANOMALY":15.9657,"EPHEMERIS_TYPE":0,"CLASSIFICATION_TYPE":"U","NORAD_CAT_ID":61969,"ELEMENT_SET_NO":999,"REV_AT_EPOCH":4577,"BSTAR":0.0022847037,"MEAN_MOTION_DOT":0.00063169,"MEAN_MOTION_DDOT":0},{"OBJECT_NAME":"STARLINK-32613","OBJECT_ID":"2024-210M","EPOCH":"2025-08-31T12:42:16.053408","MEAN_MOTION":15.27616136,"ECCENTRICITY":0.00026425,"INCLINATION":43.0044,"RA_OF_ASC_NODE":174.0756,"ARG_OF_PERICENTER":263.3152,"MEAN_ANOMALY":96.7399,"EPHEMERIS_TYPE":0,"CLASSIFICATION_TYPE":"U","NORAD_CAT_ID":61970,"ELEMENT_SET_NO":999,"REV_AT_EPOCH":4583,"BSTAR":0.0014363838,"MEAN_MOTION_DOT":0.00039522,"MEAN_MOTION_DDOT":0}]
