STARLINK-32583          
1 61955U 24209S   25243.55019328  .00021203  00000+0  72593-3 0  9998
2 61955  53.1591 305.7263 0001320  87.1456 272.9696 15.30200750 45806
STARLINK-32273          
1 61956U 24209T   25243.45849573  .00030050  00000+0  10228-2 0  9997
2 61956  53.1583 305.8655 0001357  94.7339 265.3817 15.30193607 45777
STARLINK-32359          
1 61957U 24209U   25243.47854774  .00007746  00000+0  27343-3 0  9992
2 61957  53.1577 305.9919 0001135  94.7017 265.4113 15.30192547 45796
STARLINK-32566          
1 61958U 24209V   25243.45533408  .00032810  00000+0  11150-2 0  9997
2 61958  53.1589 305.8484 0001781  45.8767 314.2380 15.30200557 45792
STARLINK-32499          
1 61959U 24210A   25243.08178540  .00045317  00000+0  16438-2 0  9991
2 61959  43.0011 175.8773 0002856 273.9851  86.0674 15.27626596 45778
STARLINK-32372          
1 61960U 24210B   25243.22026690  .00040920  00000+0  14860-2 0  9999
2 61960  43.0001 175.1952 0001750 268.9171  91.1481 15.27629949 45657
STARLINK-32452          
1 61961U 24210C   25243.49178811  .00049520  00000+0  17963-2 0  9994
2 61961  43.0000 166.8715 0001469  23.2660 336.8258 15.27592365 45903
STARLINK-32458          
1 61962U 24210D   25243.46704324  .00044429  00000+0  16124-2 0  9997
2 61962  42.9997 159.7564 0002934 279.5525  80.4995 15.27616503 45983
STARLINK-32487          
1 61963U 24210E   25243.51136937  .00036986  00000+0  13458-2 0  9999
2 61963  43.0012 173.9334 0001277 290.0252  70.0462 15.27605607 45821
STARLINK-32513          
1 61964U 24210F   25243.45548121  .00042533  00000+0  15441-2 0  9994
2 61964  42.9980 159.6692 0002146 277.3624  82.6983 15.27625164 45983
STARLINK-32514          
1 61965U 24210G   25243.49565758  .00035417  00000+0  12904-2 0  9998
2 61965  43.0017 166.8988 0001520 266.8033  93.2645 15.27579986 45902
STARLINK-32498          
1 61966U 24210H   25242.98364594  .00027483  00000+0  10043-2 0  9993
2 61966  42.9943 162.1510 0001393 285.4701  74.5997 15.27586972 45912
STARLINK-32518          
1 61967U 24210J   25242.08278853 -.00011637  00000+0 -41420-3 0  9997
2 61967  42.9992 175.0229 0001730 282.2447  77.8210 15.27565226 45557
STARLINK-32471          
1 61968U 24210K   25243.48535717  .00026606  00000+0  97286-3 0  9999
2 61968  42.9976 166.8238 0000588 239.8790 120.2003 15.27580329 45911
STARLINK-32450          
1 61969U 24210L   25243.48921263  .00063169  00000+0  22847-2 0  9990
2 61969  42.9994 166.8520 0001045 344.1162  15.9657 15.27591109 45775
STARLINK-32613          
1 61970U 24210M   25243.52935247  .00039522  00000+0  14364-2 0  9995
2 61970  43.0044 174.0756 0002642 263.3152  96.7399 15.27616136 45837
